0 COROT
1 29678U 06063A   13282.78465581  .00000031  00000-0  14127-4 0  2274
2 29678 090.0237 011.0952 0003679 228.5543 285.8353 13.98368366346265
0 COROT
1 29678U 06063A   13283.78576723  .00000030  00000-0  13596-4 0  2285
2 29678 090.0238 011.0976 0003806 224.4620 286.5059 13.98368545346401
0 COROT
1 29678U 06063A   13285.85821396  .00000067  00000-0  39478-4 0  2304
2 29678 090.0237 011.1028 0004047 216.0626 281.3620 13.98368327346696
0 COROT
1 29678U 06063A   13286.98633882  .00000113  00000-0  72000-4 0  2311
2 29678 090.0236 011.1057 0004157 211.5979 201.4116 13.98368141346855
0 COROT
1 29678U 06063A   13288.05947683  .00000180  00000-0  11904-3 0  2328
2 29678 090.0234 011.1085 0004261 207.2485 204.7066 13.98368311347001
0 COROT
1 29678U 06063A   13289.13453745  .00000191  00000-0  12674-3 0  2337
2 29678 090.0233 011.1113 0004373 203.8248 216.7488 13.98368443347158
0 COROT
1 29678U 06063A   13290.50720199  .00000216  00000-0  14362-3 0  2345
2 29678 090.0231 011.1148 0004504 199.4100 287.0249 13.98368589347345
0 COROT
1 29678U 06063A   13291.79887582  .00000240  00000-0  16041-3 0  2351
2 29678 090.0228 011.1181 0004634 195.5786 309.2550 13.98369040347524
0 COROT
1 29678U 06063A   13292.79959382  .00000250  00000-0  16749-3 0  2367
2 29678 090.0227 011.1206 0004738 193.3135 306.1237 13.98369477347667
0 COROT
1 29678U 06063A   13293.80135035  .00000223  00000-0  14855-3 0  2378
2 29678 090.0227 011.1231 0004855 190.7909 308.4754 13.98370008347802
0 COROT
1 29678U 06063A   13294.87355959  .00000183  00000-0  12078-3 0  2386
2 29678 090.0227 011.1257 0004987 187.9279 305.6160 13.98370680347956
0 COROT
1 29678U 06063A   13296.14650792  .00000134  00000-0  86254-4 0  2396
2 29678 090.0227 011.1287 0005141 184.9810 232.7595 13.98371606348132
